start=new Date('2021-11-02T00:00:00.000Z').valueOf();
sats=[{"OBJECT_TYPE":"PAYLOAD","OBJECT_NAME":"STARLINK-1543","FILE":"3196819","RA_OF_ASC_NODE":"49.9612","CLASSIFICATION_TYPE":"U","SITE":"AFETR","INCLINATION":"53.0548","NORAD_CAT_ID":"46053","MEAN_MOTION":"15.06397374","LAUNCH_DATE":"2020-08-07","PERIAPSIS":"546.267","REF_FRAME":"TEME","MEAN_ANOMALY":"281.9348","OBJECT_ID":"2020-055AC","SEMIMAJOR_AXIS":"6925.357","TLE_LINE1":"1 46053U 20055AC  21305.68084399 -.00000069  00000-0  14242-4 0  9991","CENTER_NAME":"EARTH","TIME_SYSTEM":"UTC","REV_AT_EPOCH":"6953","PERIOD":"95.592","TLE_LINE2":"2 46053  53.0548  49.9612 0001379  78.1796 281.9348 15.06397374 69537","EPOCH":"2021-11-01T16:20:24.920736","APOAPSIS":"548.177","GP_ID":"188692156","EPHEMERIS_TYPE":"0","ARG_OF_PERICENTER":"78.1796","DECAY_DATE":null,"MEAN_ELEMENT_THEORY":"SGP4","COUNTRY_CODE":"US","MEAN_MOTION_DDOT":"0.0000000000000","ELEMENT_SET_NO":"999","ECCENTRICITY":"0.00013790","MEAN_MOTION_DOT":"-0.00000069","RCS_SIZE":"LARGE","BSTAR":"0.00001424200000"},{"MEAN_ELEMENT_THEORY":"SGP4","DECAY_DATE":null,"ARG_OF_PERICENTER":"89.1654","COUNTRY_CODE":"US","APOAPSIS":"548.061","GP_ID":"188693408","EPHEMERIS_TYPE":"0","ECCENTRICITY":"0.00012580","MEAN_MOTION_DOT":"0.00001648","BSTAR":"0.00012948000000","RCS_SIZE":"LARGE","MEAN_MOTION_DDOT":"0.0000000000000","ELEMENT_SET_NO":"999","SITE":"AFETR","CLASSIFICATION_TYPE":"U","INCLINATION":"53.0566","NORAD_CAT_ID":"46054","MEAN_MOTION":"15.06407810","OBJECT_NAME":"STARLINK-1548","OBJECT_TYPE":"PAYLOAD","FILE":"3196819","RA_OF_ASC_NODE":"49.9149","REV_AT_EPOCH":"6953","PERIOD":"95.592","TLE_LINE2":"2 46054  53.0566  49.9149 0001258  89.1654 270.9479 15.06407810 69534","EPOCH":"2021-11-01T16:31:02.094816","LAUNCH_DATE":"2020-08-07","MEAN_ANOMALY":"270.9479","OBJECT_ID":"2020-055AD","PERIAPSIS":"546.318","REF_FRAME":"TEME","TLE_LINE1":"1 46054U 20055AD  21305.68821869  .00001648  00000-0  12948-3 0  9996","SEMIMAJOR_AXIS":"6925.325","TIME_SYSTEM":"UTC","CENTER_NAME":"EARTH"},{"RCS_SIZE":"LARGE","BSTAR":"0.00012546000000","ECCENTRICITY":"0.00013570","MEAN_MOTION_DOT":"0.00001588","ELEMENT_SET_NO":"999","MEAN_MOTION_DDOT":"0.0000000000000","COUNTRY_CODE":"US","ARG_OF_PERICENTER":"78.2635","MEAN_ELEMENT_THEORY":"SGP4","DECAY_DATE":null,"EPHEMERIS_TYPE":"0","APOAPSIS":"548.151","GP_ID":"188693158","EPOCH":"2021-11-01T16:09:47.778624","REV_AT_EPOCH":"6953","PERIOD":"95.592","TLE_LINE2":"2 46055  53.0564  49.9957 0001357  78.2635 281.8507 15.06400846 69533","PERIAPSIS":"546.271","REF_FRAME":"TEME","OBJECT_ID":"2020-055AE","MEAN_ANOMALY":"281.8507","TLE_LINE1":"1 46055U 20055AE  21305.67346966  .00001588  00000-0  12546-3 0  9993","CENTER_NAME":"EARTH","SEMIMAJOR_AXIS":"6925.346","TIME_SYSTEM":"UTC","LAUNCH_DATE":"2020-08-07","NORAD_CAT_ID":"46055","MEAN_MOTION":"15.06400846","CLASSIFICATION_TYPE":"U","SITE":"AFETR","INCLINATION":"53.0564","RA_OF_ASC_NODE":"49.9957","OBJECT_TYPE":"PAYLOAD","OBJECT_NAME":"STARLINK-1554","FILE":"3196819"},{"ELEMENT_SET_NO":"999","MEAN_MOTION_DDOT":"0.0000000000000","BSTAR":"0.00018171000000","RCS_SIZE":"LARGE","ECCENTRICITY":"0.00011300","MEAN_MOTION_DOT":"0.00002427","EPHEMERIS_TYPE":"0","APOAPSIS":"547.982","GP_ID":"188692407","COUNTRY_CODE":"US","MEAN_ELEMENT_THEORY":"SGP4","DECAY_DATE":null,"ARG_OF_PERICENTER":"79.6380","OBJECT_ID":"2020-055AF","MEAN_ANOMALY":"280.4736","REF_FRAME":"TEME","PERIAPSIS":"546.417","SEMIMAJOR_AXIS":"6925.334","TLE_LINE1":"1 46056U 20055AF  21305.69557593  .00002427  00000-0  18171-3 0  9999","CENTER_NAME":"EARTH","TIME_SYSTEM":"UTC","LAUNCH_DATE":"2020-08-07","EPOCH":"2021-11-01T16:41:37.760352","PERIOD":"95.592","REV_AT_EPOCH":"6954","TLE_LINE2":"2 46056  53.0548  49.8875 0001130  79.6380 280.4736 15.06404717 69546","RA_OF_ASC_NODE":"49.8875","OBJECT_NAME":"STARLINK-1561","OBJECT_TYPE":"PAYLOAD","FILE":"3196819","NORAD_CAT_ID":"46056","MEAN_MOTION":"15.06404717","SITE":"AFETR","CLASSIFICATION_TYPE":"U","INCLINATION":"53.0548"},{"ELEMENT_SET_NO":"999","MEAN_MOTION_DDOT":"0.0000000000000","BSTAR":"0.00020559000000","RCS_SIZE":"LARGE","ECCENTRICITY":"0.00012750","MEAN_MOTION_DOT":"0.00002782","EPHEMERIS_TYPE":"0","APOAPSIS":"548.116","GP_ID":"188692657","COUNTRY_CODE":"US","MEAN_ELEMENT_THEORY":"SGP4","DECAY_DATE":null,"ARG_OF_PERICENTER":"82.5566","MEAN_ANOMALY":"277.5567","OBJECT_ID":"2020-055AH","PERIAPSIS":"546.350","REF_FRAME":"TEME","TLE_LINE1":"1 46058U 20055AH  21305.70666898  .00002782  00000-0  20559-3 0  9999","SEMIMAJOR_AXIS":"6925.368","CENTER_NAME":"EARTH","TIME_SYSTEM":"UTC","LAUNCH_DATE":"2020-08-07","EPOCH":"2021-11-01T16:57:36.199872","REV_AT_EPOCH":"6953","PERIOD":"95.593","TLE_LINE2":"2 46058  53.0548  49.8313 0001275  82.5566 277.5567 15.06393801 69533","RA_OF_ASC_NODE":"49.8313","OBJECT_NAME":"STARLINK-1564","OBJECT_TYPE":"PAYLOAD","FILE":"3196819","NORAD_CAT_ID":"46058","MEAN_MOTION":"15.06393801","SITE":"AFETR","CLASSIFICATION_TYPE":"U","INCLINATION":"53.0548"},{"BSTAR":"0.00016595000000","RCS_SIZE":"LARGE","ECCENTRICITY":"0.00012480","MEAN_MOTION_DOT":"0.00002192","ELEMENT_SET_NO":"999","MEAN_MOTION_DDOT":"0.0000000000000","COUNTRY_CODE":"US","MEAN_ELEMENT_THEORY":"SGP4","DECAY_DATE":null,"ARG_OF_PERICENTER":"80.1846","EPHEMERIS_TYPE":"0","APOAPSIS":"548.039","GP_ID":"188692908","EPOCH":"2021-11-01T18:43:43.705344","PERIOD":"95.591","REV_AT_EPOCH":"6950","TLE_LINE2":"2 46059  53.0538  49.5122 0001248  80.1846 279.9284 15.06412556 69501","OBJECT_ID":"2020-055AJ","MEAN_ANOMALY":"279.9284","REF_FRAME":"TEME","PERIAPSIS":"546.311","SEMIMAJOR_AXIS":"6925.310","TLE_LINE1":"1 46059U 20055AJ  21305.78036696  .00002192  00000-0  16595-3 0  9995","CENTER_NAME":"EARTH","TIME_SYSTEM":"UTC","LAUNCH_DATE":"2020-08-07","NORAD_CAT_ID":"46059","MEAN_MOTION":"15.06412556","SITE":"AFETR","CLASSIFICATION_TYPE":"U","INCLINATION":"53.0538","RA_OF_ASC_NODE":"49.5122","OBJECT_NAME":"STARLINK-1570","OBJECT_TYPE":"PAYLOAD","FILE":"3196819"},{"COUNTRY_CODE":"US","ARG_OF_PERICENTER":"79.4142","MEAN_ELEMENT_THEORY":"SGP4","DECAY_DATE":null,"EPHEMERIS_TYPE":"0","APOAPSIS":"548.010","GP_ID":"188693659","RCS_SIZE":"LARGE","BSTAR":"0.00012902000000","ECCENTRICITY":"0.00011510","MEAN_MOTION_DOT":"0.00001641","ELEMENT_SET_NO":"999","MEAN_MOTION_DDOT":"0.0000000000000","NORAD_CAT_ID":"46060","MEAN_MOTION":"15.06400151","CLASSIFICATION_TYPE":"U","SITE":"AFETR","INCLINATION":"53.0551","RA_OF_ASC_NODE":"49.8216","OBJECT_TYPE":"PAYLOAD","OBJECT_NAME":"STARLINK-1572","FILE":"3196819","EPOCH":"2021-11-01T17:02:52.744416","PERIOD":"95.592","REV_AT_EPOCH":"6950","TLE_LINE2":"2 46060  53.0551  49.8216 0001151  79.4142 280.6977 15.06400151 69504","REF_FRAME":"TEME","PERIAPSIS":"546.416","OBJECT_ID":"2020-055AK","MEAN_ANOMALY":"280.6977","TLE_LINE1":"1 46060U 20055AK  21305.71033269  .00001641  00000-0  12902-3 0  9999","TIME_SYSTEM":"UTC","SEMIMAJOR_AXIS":"6925.348","CENTER_NAME":"EARTH","LAUNCH_DATE":"2020-08-07"},{"OBJECT_NAME":"STARLINK-1573","OBJECT_TYPE":"PAYLOAD","FILE":"3196819","RA_OF_ASC_NODE":"49.8439","SITE":"AFETR","CLASSIFICATION_TYPE":"U","INCLINATION":"53.0539","NORAD_CAT_ID":"46061","MEAN_MOTION":"15.06396943","LAUNCH_DATE":"2020-08-07","OBJECT_ID":"2020-055AL","MEAN_ANOMALY":"283.6977","REF_FRAME":"TEME","PERIAPSIS":"546.298","TLE_LINE1":"1 46061U 20055AL  21305.70295795 -.00001113  00000-0 -55837-4 0  9994","SEMIMAJOR_AXIS":"6925.358","TIME_SYSTEM":"UTC","CENTER_NAME":"EARTH","REV_AT_EPOCH":"6953","PERIOD":"95.592","TLE_LINE2":"2 46061  53.0539  49.8439 0001335  76.4161 283.6977 15.06396943 69539","EPOCH":"2021-11-01T16:52:15.566880","APOAPSIS":"548.147","GP_ID":"188691907","EPHEMERIS_TYPE":"0","MEAN_ELEMENT_THEORY":"SGP4","DECAY_DATE":null,"ARG_OF_PERICENTER":"76.4161","COUNTRY_CODE":"US","MEAN_MOTION_DDOT":"0.0000000000000","ELEMENT_SET_NO":"999","ECCENTRICITY":"0.00013350","MEAN_MOTION_DOT":"-0.00001113","BSTAR":"-0.00005583700000","RCS_SIZE":"LARGE"},{"CLASSIFICATION_TYPE":"U","SITE":"AFETR","INCLINATION":"53.0553","NORAD_CAT_ID":"46062","MEAN_MOTION":"15.06420200","OBJECT_TYPE":"PAYLOAD","OBJECT_NAME":"STARLINK-1574","FILE":"3196819","RA_OF_ASC_NODE":"49.7143","REV_AT_EPOCH":"6950","PERIOD":"95.591","TLE_LINE2":"2 46062  53.0553  49.7143 0001105  86.4762 273.6353 15.06420200 69508","EPOCH":"2021-11-01T17:40:01.451424","LAUNCH_DATE":"2020-08-07","PERIAPSIS":"546.386","REF_FRAME":"TEME","OBJECT_ID":"2020-055AM","MEAN_ANOMALY":"273.6353","TLE_LINE1":"1 46062U 20055AM  21305.73612791  .00004710  00000-0  33469-3 0  9997","SEMIMAJOR_AXIS":"6925.287","CENTER_NAME":"EARTH","TIME_SYSTEM":"UTC","ARG_OF_PERICENTER":"86.4762","MEAN_ELEMENT_THEORY":"SGP4","DECAY_DATE":null,"COUNTRY_CODE":"US","APOAPSIS":"547.917","GP_ID":"188692157","EPHEMERIS_TYPE":"0","ECCENTRICITY":"0.00011050","MEAN_MOTION_DOT":"0.00004710","RCS_SIZE":"LARGE","BSTAR":"0.00033469000000","MEAN_MOTION_DDOT":"0.0000000000000","ELEMENT_SET_NO":"999"},{"MEAN_MOTION_DDOT":"0.0000000000000","ELEMENT_SET_NO":"999","MEAN_MOTION_DOT":"-0.00000397","ECCENTRICITY":"0.00013170","BSTAR":"-0.00000774710000","RCS_SIZE":"LARGE","GP_ID":"188693409","APOAPSIS":"548.145","EPHEMERIS_TYPE":"0","DECAY_DATE":null,"MEAN_ELEMENT_THEORY":"SGP4","ARG_OF_PERICENTER":"77.9168","COUNTRY_CODE":"US","LAUNCH_DATE":"2020-08-07","TLE_LINE1":"1 46063U 20055AN  21305.73245048 -.00000397  00000-0 -77471-5 0  9997","CENTER_NAME":"EARTH","SEMIMAJOR_AXIS":"6925.368","TIME_SYSTEM":"UTC","OBJECT_ID":"2020-055AN","MEAN_ANOMALY":"282.1969","PERIAPSIS":"546.321","REF_FRAME":"TEME","TLE_LINE2":"2 46063  53.0557  49.7268 0001317  77.9168 282.1969 15.06393518 69533","REV_AT_EPOCH":"6953","PERIOD":"95.593","EPOCH":"2021-11-01T17:34:43.721472","FILE":"3196819","OBJECT_NAME":"STARLINK-1577","OBJECT_TYPE":"PAYLOAD","RA_OF_ASC_NODE":"49.7268","INCLINATION":"53.0557","SITE":"AFETR","CLASSIFICATION_TYPE":"U","MEAN_MOTION":"15.06393518","NORAD_CAT_ID":"46063"}];
